# From MPEC 2024-C04
C/2016 J2 (Denneau),h,04/13.6830/2016,130.3382,186.4162,318.3890,1.000524,1.497826,2000,17.0,4.0
# From MPC102099
P/2016 P1 (PANSTARRS),e,24.3823,319.3548,270.7174,3.202452,0.1719809,0.28819571,189.2426,06/15.0/2024,2000,g 15.0,4.0
# From MPEC 2024-H50
C/2016 Q2 (PANSTARRS),h,05/12.2501/2021,109.3526,322.3365,84.5489,1.003158,7.080700,2000,6.0,4.0
# From MPEC 2022-K19
P/2016 R4 (Gibbs),e,10.8702,168.2807,174.1299,5.335213,0.0799791,0.47533321,230.6161,06/15.0/2024,2000,g 12.5,4.0
# From MPC105543
P/2016 S1 (PANSTARRS),e,94.7393,227.6765,273.1961,8.270185,0.0414411,0.71139670,109.6109,06/15.0/2024,2000,g 12.0,4.0
# From MPC106345
P/2016 WM48 (Lemmon),e,117.6352,59.9540,36.1785,8.173313,0.0421800,0.78375655,112.4754,06/15.0/2024,2000,g 15.0,4.0
# From MPEC 2021-P47
C/2016 X1 (Lemmon),e,26.4685,256.3041,224.5426,1903,0.0000119,0.99602910,0.0000,04/29.2666/2019,2000,g  6.0,4.0
# From MPEC 2022-OB6
C/2017 B3 (LINEAR),e,54.1865,2.2024,284.8189,5869,0.0000022,0.99932972,0.0000,01/30.9361/2019,2000,g  6.0,4.0
# From MPC103847
P/2017 B4 (PANSTARRS),e,20.0584,121.4578,11.0197,4.410520,0.1064068,0.36495152,359.9130,01/05.0/2017,2000,g 14.5,4.0
# From MPEC 2022-OB6
P/2017 D1 (Fuls),e,20.7723,82.1997,8.0043,4.824801,0.0930004,0.43766889,270.7330,06/15.0/2024,2000,g 14.0,4.0
# From MPEC 2022-OB6
P/2017 D4 (PANSTARRS),e,10.5588,264.9081,212.1233,7.543236,0.0475738,0.63011526,134.9613,06/15.0/2024,2000,g 13.0,4.0
# From MPEC 2024-C04
P/2017 G1 (PANSTARRS),e,5.1553,247.1394,225.2324,7.193909,0.0510807,0.65036844,152.2070,06/15.0/2024,2000,g 13.5,4.0
# From MPC108595
P/2017 G2 (PANSTARRS),e,47.9680,79.8956,105.2647,8.041112,0.0432245,0.64815631,110.7774,06/15.0/2024,2000,g 13.0,4.0
# From MPEC 2024-LE0
C/2017 K2 (PANSTARRS),h,12/19.5271/2022,87.5941,88.2265,236.2094,1.000305,1.798166,2000,1.5,4.0
# From MPEC 2021-N06
P/2017 K3 (Gasparovic),e,4.2733,354.2882,253.3109,5.585016,0.0746737,0.57896318,192.6499,06/15.0/2024,2000,g 14.5,4.0
# From MPEC 2021-P47
C/2017 K5 (PANSTARRS),h,03/26.5903/2020,82.2725,102.4401,172.0165,1.003755,7.683640,2000,5.0,4.0
# From MPEC 2022-OB6
C/2017 M4 (ATLAS),h,01/17.8697/2019,105.6233,66.0207,167.5038,1.000661,3.243032,2000,6.0,4.0
# From MPC114599
P/2017 P1 (PANSTARRS),e,7.6877,221.4614,122.8116,7.920714,0.0442138,0.30981412,96.5968,06/15.0/2024,2000,g 10.0,4.0
# From MPEC 2022-OB6
P/2017 S8 (PANSTARRS),e,29.8434,191.5298,254.8776,2.778781,0.2127760,0.39103826,135.8793,06/15.0/2024,2000,g 16.0,4.0
# From MPEC 2024-A43
C/2017 T2 (PANSTARRS),e,57.2930,64.4511,92.8195,1494,0.0000171,0.99892344,0.0000,05/05.3297/2020,2000,g  5.0,4.0
# From MPC115882
P/2017 TW13 (Lemmon),e,44.8703,322.1907,119.9443,7.135535,0.0517088,0.71072845,112.9248,06/15.0/2024,2000,g 15.0,2.0
# From MPEC 2022-K19
P/2017 U3 (PANSTARRS),e,15.9185,165.0795,296.2644,4.921322,0.0902779,0.10048862,170.5469,06/15.0/2024,2000,g 11.0,4.0
# From MPEC 2023-A50
C/2017 U7 (PANSTARRS),h,09/16.1091/2019,142.6336,276.3052,326.4623,1.002670,6.426098,2000,8.3,2.0
# From MPC114601
P/2017 W3 (Gibbs),e,18.1770,210.1306,327.7683,7.822672,0.0450476,0.50656874,103.6544,06/15.0/2024,2000,g 10.5,4.0
# From MPEC 2024-DC6
C/2017 Y2 (PANSTARRS),h,11/05.1072/2020,128.4492,66.0350,147.8889,1.001486,4.627654,2000,15.0,4.0
# From MPC111770
P/2017 Y3 (Leonard),e,27.5997,153.9405,67.4491,9.803533,0.0321092,0.86934824,74.5011,06/15.0/2024,2000,g 16.5,4.0
# From MPEC 2021-P47
C/2018 A3 (ATLAS),e,139.5686,194.3185,86.4200,344.7315,0.0001540,0.99046640,0.0000,01/09.3453/2019,2000,g  8.5,4.0
# From MPC109147
P/2018 A5 (PANSTARRS),e,23.6201,87.7832,359.5132,5.625473,0.0738696,0.52428604,181.1941,06/15.0/2024,2000,g 15.0,4.0
# From MPEC 2024-JU4
C/2018 A6 (Gibbs),e,77.1117,340.4170,264.3084,15.00978,0.0169489,0.79888564,30.5342,06/15.0/2024,2000,g  9.0,4.0
# From MPC114601
P/2018 C1 (Lemmon-Read),e,5.1055,270.2657,235.7286,5.650697,0.0733755,0.53234132,169.0315,06/15.0/2024,2000,g 13.5,4.0
# From MPEC 2022-M88
C/2018 DO4 (Lemmon),e,160.4474,251.3890,176.3495,25.44791,0.0076776,0.90500793,13.5437,06/15.0/2024,2000,g 11.0,4.0
# From MPEC 2021-R75
C/2018 F1 (Grauer),e,46.1214,177.2936,71.5098,223.7479,0.0002945,0.98661112,0.0000,12/10.5547/2018,2000,g 11.5,4.0
# From MPEC 2023-A50
C/2018 F4 (PANSTARRS),e,78.0957,26.5197,263.2065,2272,0.0000091,0.99848271,0.0000,12/01.7124/2019,2000,g 11.0,6.0
# From MPEC 2021-Y10
C/2018 F4-A,e,78.0959,26.5199,263.2033,2195,0.0000096,0.99842975,0.0000,12/01.7005/2019,2000,g 11.0,6.0
# From MPEC 2023-D41
C/2018 F4-B,e,78.0968,26.5194,263.1891,2327,0.0000088,0.99851852,0.0000,12/01.6373/2019,2000,g 11.0,6.0
# From MPC114602
P/2018 H2 (PANSTARRS),e,7.4211,67.9739,119.4442,4.398527,0.1068423,0.54052428,252.4472,06/15.0/2024,2000,g 16.6,2.0
# From MPEC 2021-R75
C/2018 KJ3 (Lemmon),e,136.6331,91.6872,217.5915,801.9096,0.0000434,0.99548510,0.0000,09/09.5935/2019,2000,g 12.2,2.0
# From MPC114602
P/2018 L1 (PANSTARRS),e,10.5786,268.5895,17.9924,3.656226,0.1409791,0.48127389,288.2544,06/15.0/2024,2000,g 15.0,4.0
# From MPEC 2021-P47
C/2018 L2 (ATLAS),e,67.2000,242.9830,56.3503,244.5867,0.0002577,0.99296849,0.0000,11/30.7691/2018,2000,g 10.0,4.0
# From MPC114603
P/2018 L4 (PANSTARRS),e,26.5976,145.2158,140.5566,4.947561,0.0895607,0.65830390,192.4413,06/15.0/2024,2000,g 17.5,4.0
# From MPC119996
P/2018 L5 (Leonard),e,2.2090,219.0577,93.9235,3.629124,0.1425612,0.36381314,318.2411,06/15.0/2024,2000,g 14.5,4.0
# From MPEC 2022-YN2
C/2018 N2 (ASASSN),h,11/11.8908/2019,77.5408,24.4999,25.2828,1.001711,3.132369,2000,6.0,4.0
# From MPC114603
P/2018 P4 (PANSTARRS),e,23.0947,353.1471,8.4887,6.692220,0.0569310,0.44980161,116.4423,06/15.0/2024,2000,g 12.0,4.0
# From MPEC 2021-P47
C/2018 P5 (PANSTARRS),e,7.2458,216.2511,132.0323,12.85265,0.0213902,0.64229722,41.3822,06/15.0/2024,2000,g 11.0,4.0
# From MPC118841
C/2018 R3 (Lemmon),e,69.7067,324.4815,112.7325,1669,0.0000145,0.99923169,0.0000,06/08.0884/2019,2000,g  9.5,4.0
# From MPC114603
C/2018 R5 (Lemmon),e,103.7207,171.2160,178.2566,22.97105,0.0089523,0.84162164,17.7470,06/15.0/2024,2000,g 11.5,4.0
# From MPEC 2022-QC6
C/2018 S2 (TESS),e,64.1166,85.1139,290.8840,14.36996,0.0180934,0.61846326,37.0465,06/15.0/2024,2000,g  7.5,4.0
# From MPEC 2024-JU4
C/2018 U1 (Lemmon),h,11/02.7100/2021,108.3253,75.5129,180.4228,1.000925,4.990012,2000,5.0,4.0
# From MPC114604
C/2018 V1 (Machholz-Fujikawa-Iwamoto),h,12/03.3084/2018,144.1627,129.3949,89.4225,1.000422,0.391863,2000,12.0,4.0
# From MPC115884
C/2018 V2 (ATLAS),e,159.1658,357.1423,319.1845,25.18005,0.0078004,0.90104086,15.8230,06/15.0/2024,2000,g 15.0,4.0
# From MPEC 2023-CD7
P/2018 VN2 (Leonard),e,18.2604,226.4410,138.9240,4.061590,0.1204093,0.47842722,264.6848,06/15.0/2024,2000,g 15.0,4.0
# From MPEC 2022-VC5
A/2018 V3,e,164.9342,308.7747,3.6088,128.4343,0.0006771,0.98960381,0.0000,09/10.0868/2019,2000,g 15.7,2.0
# From MPEC 2022-M21
C/2018 V4 (Africano),e,69.0393,78.2521,0.0179,210.1152,0.0003236,0.98478056,0.0000,03/02.1802/2019,2000,g 12.5,4.0
# From MPEC 2021-P47
P/2018 V5 (Trujillo-Sheppard),e,10.5843,171.3174,260.7509,8.972415,0.0366725,0.47595818,76.2600,06/15.0/2024,2000,g 12.5,4.0
# From MPEC 2021-P47
C/2018 W1 (Catalina),e,83.4240,233.6585,251.1928,21.71780,0.0097382,0.93761186,18.1140,06/15.0/2024,2000,g 15.5,2.0
# From MPEC 2021-P47
C/2018 W2 (Africano),h,09/05.3992/2019,116.5900,181.8887,158.1839,1.000839,1.465191,2000,9.5,4.0
# From MPEC 2023-M14
A/2018 W3,e,104.8387,251.6895,313.9264,717.4077,0.0000513,0.99402410,0.0000,04/13.1082/2021,2000,g 10.7,2.0
# From MPC119996
C/2018 X2 (Fitzsimmons),e,23.0890,340.7189,161.9497,139.3137,0.0005994,0.98482566,0.0000,07/08.9783/2019,2000,g 12.0,4.0
# From MPC114604
C/2018 X3 (PANSTARRS),e,43.4223,78.8009,359.8017,12.39516,0.0225853,0.78290582,44.9854,06/15.0/2024,2000,g 14.5,4.0
# From MPEC 2024-A43
C/2018 Y1 (Iwamoto),e,160.4491,147.4021,357.8640,126.8684,0.0006897,0.98984963,0.0000,02/04.4242/2019,2000,g 11.5,4.0
# From MPC114605
P/2018 Y2 (Africano),e,11.6907,297.1453,162.3045,7.454280,0.0484279,0.47987605,96.3527,06/15.0/2024,2000,g 11.5,4.0
# From MPC114605
P/2019 A1 (PANSTARRS),e,13.7627,312.2294,150.7389,5.113758,0.0852303,0.56996600,176.6064,06/15.0/2024,2000,g 16.0,4.0
# From MPEC 2021-P47
P/2019 A2 (ATLAS),e,14.8670,139.3935,323.8889,5.711232,0.0722120,0.38296871,146.7041,06/15.0/2024,2000,g 10.5,4.0
# From MPEC 2022-M21
P/2019 A3 (PANSTARRS),e,15.3736,31.3569,325.6649,3.145032,0.1767122,0.26639838,18.4276,06/15.0/2024,2000,g 16.0,4.0
# From MPEC 2022-L66
P/2019 A4 (PANSTARRS),e,13.3043,119.3609,343.1102,2.614469,0.2331465,0.08733480,109.3228,06/15.0/2024,2000,g 15.0,4.0
# From MPEC 2021-P47
C/2019 A5 (PANSTARRS),e,67.5480,146.5569,355.7763,21.47907,0.0099010,0.70617965,18.1738,06/15.0/2024,2000,g  9.5,4.0
# From MPC114605
P/2019 A6 (Lemmon-PANSTARRS),e,33.2846,280.1847,156.2134,5.356792,0.0794963,0.64038245,168.0716,06/15.0/2024,2000,g 16.0,4.0
# From MPC115884
P/2019 A8 (PANSTARRS),e,2.2110,114.3721,63.7541,4.340855,0.1089786,0.22676483,242.3530,06/15.0/2024,2000,g 16.0,4.0
# From MPC118842
C/2019 A9 (PANSTARRS),e,84.3561,278.4501,237.8993,39.19264,0.0040170,0.96353678,7.1729,06/15.0/2024,2000,g 15.0,4.0
# From MPEC 2022-L66
C/2019 B1 (Africano),e,123.4513,290.2760,174.7822,138.2924,0.0006060,0.98843964,0.0000,03/18.5283/2019,2000,g 16.0,4.0
# From MPC115885
P/2019 B2 (Groeller),e,16.9693,175.7128,0.7653,3.922962,0.1268478,0.35811579,235.0602,06/15.0/2024,2000,g 14.5,4.0
# From MPEC 2024-JU4
C/2019 B3 (PANSTARRS),e,66.5629,358.4175,263.9765,5160,0.0000027,0.99867683,0.0000,01/19.8892/2021,2000,g  5.5,4.0
# From MPEC 2021-P47
C/2019 C1 (ATLAS),e,36.0494,212.3893,319.0173,653.4697,0.0000590,0.98994515,0.0000,05/04.0962/2020,2000,g 10.0,4.0
# From MPEC 2022-O08
C/2019 D1 (Flewelling),e,33.9942,231.6451,70.7355,139.5136,0.0005981,0.98860077,0.0000,05/09.9865/2019,2000,g 13.0,4.0
# From MPEC 2024-LE0
C/2019 E3 (ATLAS),e,84.3024,347.2202,280.7080,5859,0.0000022,0.99823972,0.0000,11/15.4357/2023,2000,g  2.5,4.0
# From MPEC 2024-GJ3
